BEIDOU-2 IGSO-5         
1 37948U 11073A   26183.72937883 -.00000128  00000+0  00000+0 0  9990
2 37948  47.6496 271.3544 0114527 222.0502 141.5350  1.00270596 53296
BEIDOU-2 G5             
1 38091U 12008A   26191.15084760  .00000065  00000+0  00000+0 0  9991
2 38091   3.6273  69.5549 0007357 271.1607  60.3662  1.00269053 52598
BEIDOU-2 M3             
1 38250U 12018A   26191.27788637 -.00000070  00000+0  00000+0 0  9993
2 38250  55.7366 304.0977 0020758 272.6344  87.1430  1.86230078 96375
BEIDOU-2 M4             
1 38251U 12018B   26191.21022520 -.00000069  00000+0  00000+0 0  9998
2 38251  55.6365 303.3118 0012127 272.8990  86.9783  1.86229678 96375
BEIDOU-2 M6             
1 38775U 12050B   26190.91986512 -.00000047  00000+0  00000+0 0  9997
2 38775  56.5639  62.1429 0013039   0.9461 359.1187  1.86230853 93738
BEIDOU-2 G6             
1 38953U 12059A   26191.08453939 -.00000167  00000+0  00000+0 0  9998
2 38953   4.4756  73.2802 0008818 329.9398 359.1724  1.00268183 50135
BEIDOU-3S IGSO-1S       
1 40549U 15019A   26183.80025122 -.00000190  00000+0  00000+0 0  9997
2 40549  49.1798 295.2769 0076860 219.1125 144.2493  1.00680073 41232
BEIDOU-3S M2S           
1 40748U 15037A   26190.33830326 -.00000066  00000+0  00000+0 0  9996
2 40748  54.8497 301.2843 0009247 257.2985 102.6179  1.86232291 74532
BEIDOU-3S M1S           
1 40749U 15037B   26190.00611878 -.00000066  00000+0  00000+0 0  9990
2 40749  54.8467 301.2824 0002873  63.4413 296.6083  1.86254773 74537
BEIDOU-3S IGSO-2S       
1 40938U 15053A   26190.65869216 -.00000103  00000+0  00000+0 0  9992
2 40938  49.1869 258.5151 0066136 192.8518 167.1461  1.00254643 39582
BEIDOU-2 IGSO-6         
1 41434U 16021A   26177.11016981 -.00000145  00000+0  00000+0 0  9995
2 41434  60.2385  37.9495 0057558 231.0163 137.2672  1.00258926 37578
